STARLINK-32617          
1 62076U 24217V   26068.62945605  .00028729  00000+0  97861-3 0  9997
2 62076  53.1607 181.2847 0001102  83.9922 276.1205 15.30191631 73590
TEVEL2-2                
1 63219U 25052K   26068.64848259  .00020339  00000+0  69428-3 0  9991
2 63219  97.3987 324.7700 0004693 105.7930 254.3828 15.30343745 54855
